{"type": "FeatureCollection", "features": [{"type": "Feature", "properties": {"STATEFP": "19", "PLACEFP": "39450", "PLACENS": "00468135", "GEOID": "1939450", "GEOIDFQ": "1600000US1939450", "NAME": "Jefferson", "NAMELSAD": "Jefferson city", "LSAD": "25", "CLASSFP": "C2", "PCICBSA": "N", "MTFCC": "G4110", "FUNCSTAT": "A", "ALAND": 15581912, "AWATER": 133592, "INTPTLAT": "+42.0177429", "INTPTLON": "-094.3794225"}, "geometry": {"type": "Polygon", "coordinates": [[[-94.416381, 42.018483], [-94.41159, 42.018933], [-94.411471, 42.016043], [-94.411377, 42.012972], [-94.406601, 42.012993], [-94.406617, 42.013423], [-94.406647, 42.014419], [-94.406663, 42.014928], [-94.406699, 42.015782], [-94.406778, 42.018212], [-94.40682, 42.019477], [-94.406821, 42.01953], [-94.406827, 42.019689], [-94.406829, 42.019742], [-94.406846, 42.020256], [-94.40685, 42.020374], [-94.406896, 42.021801], [-94.406913, 42.022317], [-94.404977, 42.022301], [-94.401944, 42.022276], [-94.399172, 42.022264], [-94.398411, 42.022261], [-94.397237, 42.022266], [-94.397262, 42.022582], [-94.397315, 42.023647], [-94.397378, 42.024714], [-94.397479, 42.026412], [-94.397609, 42.028903], [-94.397764, 42.031744], [-94.397782, 42.03206], [-94.397872, 42.033612], [-94.397899, 42.03451], [-94.395838, 42.034502], [-94.394551, 42.034498], [-94.389938, 42.034488], [-94.389655, 42.034486], [-94.387595, 42.034473], [-94.387596, 42.035938], [-94.387624, 42.038254], [-94.385319, 42.038262], [-94.377933, 42.038284], [-94.368697, 42.03826], [-94.368529, 42.03826], [-94.368321, 42.038259], [-94.368217, 42.038258], [-94.367201, 42.038254], [-94.363278, 42.038254], [-94.36321, 42.038254], [-94.362778, 42.038251], [-94.362598, 42.038249], [-94.358514, 42.038216], [-94.358478, 42.034637], [-94.358264, 42.026146], [-94.358213, 42.024085], [-94.358174, 42.022532], [-94.358156, 42.020449], [-94.358114, 42.016449], [-94.358102, 42.015307], [-94.358095, 42.014925], [-94.358042, 42.01168], [-94.357994, 42.00809], [-94.35788, 42.000847], [-94.367612, 42.000808], [-94.367607, 41.999737], [-94.367602, 41.998475], [-94.367578, 41.997428], [-94.367556, 41.997189], [-94.367529, 41.996996], [-94.367504, 41.996885], [-94.36741, 41.996543], [-94.367317, 41.996204], [-94.367277, 41.996043], [-94.367295, 41.995975], [-94.367442, 41.995738], [-94.36752, 41.995613], [-94.367536, 41.995559], [-94.367543, 41.995534], [-94.367565, 41.995362], [-94.367562, 41.995184], [-94.367559, 41.994962], [-94.367559, 41.994218], [-94.367555, 41.994055], [-94.367547, 41.993679], [-94.369493, 41.99366], [-94.369677, 41.993659], [-94.371441, 41.993677], [-94.372499, 41.993662], [-94.374321, 41.993673], [-94.375331, 41.993672], [-94.377278, 41.993672], [-94.378765, 41.993663], [-94.378928, 41.993671], [-94.378919, 41.993117], [-94.378582, 41.992839], [-94.37871, 41.992355], [-94.379789, 41.992181], [-94.381086, 41.992857], [-94.381624, 41.993264], [-94.381805, 41.993671], [-94.381941, 41.993981], [-94.382264, 41.995123], [-94.382745, 41.996854], [-94.382777, 41.997818], [-94.382778, 41.998029], [-94.382795, 41.998422], [-94.382803, 41.998722], [-94.382825, 41.998926], [-94.38283, 41.999252], [-94.382878, 41.999528], [-94.382849, 41.999971], [-94.382911, 42.000411], [-94.382921, 42.000705], [-94.382925, 42.000795], [-94.383619, 42.000788], [-94.39039, 42.000726], [-94.393334, 42.000721], [-94.393781, 42.000715], [-94.394038, 42.000711], [-94.394339, 42.000708], [-94.395993, 42.000696], [-94.396015, 42.000696], [-94.396574, 42.000701], [-94.396578, 42.000801], [-94.396628, 42.006672], [-94.396642, 42.008013], [-94.397324, 42.008013], [-94.397384, 42.008119], [-94.397624, 42.008287], [-94.398006, 42.008438], [-94.39842, 42.008564], [-94.399682, 42.008895], [-94.400179, 42.008957], [-94.401341, 42.008996], [-94.402307, 42.008834], [-94.403043, 42.008685], [-94.403244, 42.008642], [-94.403243, 42.008682], [-94.403241, 42.008792], [-94.403383, 42.008774], [-94.403525, 42.008756], [-94.403663, 42.008733], [-94.404021, 42.008673], [-94.404094, 42.008662], [-94.405053, 42.00823], [-94.405134, 42.008195], [-94.405479, 42.008085], [-94.405568, 42.008057], [-94.405832, 42.007973], [-94.406095, 42.007889], [-94.406401, 42.007887], [-94.406406, 42.008063], [-94.406468, 42.009931], [-94.406506, 42.011103], [-94.406561, 42.011529], [-94.412353, 42.011563], [-94.414514, 42.011575], [-94.415394, 42.01158], [-94.416173, 42.011585], [-94.416226, 42.013475], [-94.416294, 42.01579], [-94.416381, 42.018483]]]}}]}