{"type": "FeatureCollection", "features": [{"type": "Feature", "properties": {"name": "Rural city parcel west of Jefferson \u2014 verify use", "owner": "JEFFERSON  CITY OF", "parcelId": "0632400006"}, "geometry": {"type": "Polygon", "coordinates": [[[-94.48376, 42.03682], [-94.48277, 42.03682], [-94.48269, 42.03475], [-94.48397, 42.03477], [-94.48406, 42.03682], [-94.48376, 42.03682]]]}}, {"type": "Feature", "properties": {"name": "West city parcel 1012426005 \u2014 verify use", "owner": "JEFFERSON  CITY OF", "parcelId": "1012426005"}, "geometry": {"type": "Polygon", "coordinates": [[[-94.39706, 42.01502], [-94.39924, 42.015], [-94.39887, 42.01522], [-94.39707, 42.01522], [-94.39706, 42.01502]]]}}, {"type": "Feature", "properties": {"name": "North city parcel 1104200001 \u2014 verify use", "owner": "JEFFERSON  CITY OF", "parcelId": "1104200001"}, "geometry": {"type": "Polygon", "coordinates": [[[-94.34651, 42.03437], [-94.34649, 42.03327], [-94.3487, 42.03329], [-94.34872, 42.03438], [-94.34651, 42.03437]]]}}, {"type": "Feature", "properties": {"name": "North city parcel 1105351023 \u2014 verify use", "owner": "JEFFERSON  CITY OF", "parcelId": "1105351023"}, "geometry": {"type": "Polygon", "coordinates": [[[-94.37606, 42.02427], [-94.37492, 42.02428], [-94.37491, 42.0234], [-94.3761, 42.0234], [-94.37597, 42.02287], [-94.37626, 42.02274], [-94.37644, 42.02289], [-94.37633, 42.02299], [-94.37636, 42.02427], [-94.37606, 42.02427]]]}}, {"type": "Feature", "properties": {"name": "North city parcel 1105400013 \u2014 verify use", "owner": "JEFFERSON  CITY OF", "parcelId": "1105400013"}, "geometry": {"type": "Polygon", "coordinates": [[[-94.35821, 42.02367], [-94.36783, 42.02268], [-94.36783, 42.02305], [-94.36771, 42.02306], [-94.36771, 42.02284], [-94.36735, 42.02287], [-94.36735, 42.023], [-94.35821, 42.02395], [-94.35821, 42.02367]]]}}, {"type": "Feature", "properties": {"name": "North city parcel 1106426001 \u2014 verify use", "owner": "JEFFERSON  CITY OF", "parcelId": "1106426001"}, "geometry": {"type": "Polygon", "coordinates": [[[-94.38225, 42.02786], [-94.38316, 42.02786], [-94.38321, 42.02952], [-94.38228, 42.02953], [-94.38225, 42.02786]]]}}, {"type": "Feature", "properties": {"name": "Head Park", "owner": "JEFFERSON  CITY OF", "parcelId": "1106452001"}, "geometry": {"type": "Polygon", "coordinates": [[[-94.38261, 42.02523], [-94.38374, 42.02522], [-94.38376, 42.02594], [-94.38263, 42.02595], [-94.38261, 42.02523]]]}}, {"type": "Feature", "properties": {"name": "West city parcel 1107328001 \u2014 verify use", "owner": "JEFFERSON  CITY OF", "parcelId": "1107328001"}, "geometry": {"type": "Polygon", "coordinates": [[[-94.39057, 42.01303], [-94.39056, 42.01242], [-94.39193, 42.01239], [-94.39194, 42.0133], [-94.39057, 42.01332], [-94.39057, 42.01303]]]}}, {"type": "Feature", "properties": {"name": "Kelso Park", "owner": "JEFFERSON  CITY OF", "parcelId": "1107453002"}, "geometry": {"type": "Polygon", "coordinates": [[[-94.38461, 42.00802], [-94.38463, 42.00981], [-94.38283, 42.00983], [-94.38283, 42.00961], [-94.38239, 42.00961], [-94.38239, 42.00863], [-94.38288, 42.00862], [-94.38301, 42.00847], [-94.38239, 42.00827], [-94.38239, 42.00813], [-94.38461, 42.00802]]]}}, {"type": "Feature", "properties": {"name": "Municipal Swimming Pool", "owner": "JEFFERSON  CITY OF", "parcelId": "1107481011"}, "geometry": {"type": "Polygon", "coordinates": [[[-94.38164, 42.00894], [-94.37996, 42.00895], [-94.37995, 42.00815], [-94.382, 42.00813], [-94.38214, 42.00894], [-94.38164, 42.00894]]]}}, {"type": "Feature", "properties": {"name": "Pool-area city parcel 1107484004 \u2014 verify use", "owner": "JEFFERSON  CITY OF", "parcelId": "1107484004"}, "geometry": {"type": "Polygon", "coordinates": [[[-94.37923, 42.00912], [-94.37936, 42.00896], [-94.37935, 42.00815], [-94.3797, 42.00815], [-94.37971, 42.00912], [-94.37923, 42.00912]]]}}, {"type": "Feature", "properties": {"name": "Park Maintenance Building", "owner": "JEFFERSON  CITY OF", "parcelId": "1108195008"}, "geometry": {"type": "Polygon", "coordinates": [[[-94.37091, 42.01577], [-94.37091, 42.01565], [-94.37116, 42.01565], [-94.37116, 42.01577], [-94.37091, 42.01577]]]}}, {"type": "Feature", "properties": {"name": "Jefferson Skate Park", "owner": "JEFFERSON  CITY OF", "parcelId": "1108196011"}, "geometry": {"type": "Polygon", "coordinates": [[[-94.36957, 42.01556], [-94.36957, 42.0154], [-94.36982, 42.0154], [-94.36982, 42.01556], [-94.36957, 42.01556]]]}}, {"type": "Feature", "properties": {"name": "Greene County Community Center", "owner": "JEFFERSON  CITY OF", "parcelId": "1108301001"}, "geometry": {"type": "Polygon", "coordinates": [[[-94.37701, 42.01518], [-94.37621, 42.01518], [-94.37621, 42.0144], [-94.37726, 42.01439], [-94.37726, 42.01518], [-94.37701, 42.01518]]]}}, {"type": "Feature", "properties": {"name": "City Complex", "owner": "JEFFERSON  CITY OF", "parcelId": "1108401007"}, "geometry": {"type": "Polygon", "coordinates": [[[-94.36292, 42.0145], [-94.36292, 42.01422], [-94.36366, 42.01422], [-94.36433, 42.01451], [-94.36558, 42.01451], [-94.36559, 42.01518], [-94.36293, 42.01518], [-94.36292, 42.0145]]]}}, {"type": "Feature", "properties": {"name": "Jefferson Municipal Cemetery", "owner": "JEFFERSON  CITY OF", "parcelId": "1109300007"}, "geometry": {"type": "Polygon", "coordinates": [[[-94.35774, 42.01493], [-94.35769, 42.01169], [-94.35805, 42.01169], [-94.3581, 42.01493], [-94.35774, 42.01493]]]}}, {"type": "Feature", "properties": {"name": "East city parcel 1116200007 \u2014 verify use", "owner": "JEFFERSON  CITY OF", "parcelId": "1116200007"}, "geometry": {"type": "Polygon", "coordinates": [[[-94.33878, 42.00226], [-94.33901, 42.00305], [-94.33953, 42.00364], [-94.34042, 42.00411], [-94.34149, 42.00428], [-94.33881, 42.00425], [-94.33878, 42.00226]]]}}, {"type": "Feature", "properties": {"name": "Daubendiek Park", "owner": "JEFFERSON  CITY OF", "parcelId": "1118127003"}, "geometry": {"type": "MultiPolygon", "coordinates": [[[[-94.38703, 42.00438], [-94.38749, 42.00438], [-94.38786, 42.00312], [-94.38902, 42.00397], [-94.38974, 42.00387], [-94.38954, 42.00504], [-94.38905, 42.00587], [-94.3882, 42.00651], [-94.38702, 42.00692], [-94.38703, 42.00438]]], [[[-94.38267, 42.00721], [-94.38226, 42.00722], [-94.38225, 42.00694], [-94.38418, 42.00693], [-94.38418, 42.0072], [-94.38267, 42.00721]]]]}}, {"type": "Feature", "properties": {"name": "Daubendiek Park \u2014 south tract (verify)", "owner": "JEFFERSON  CITY OF", "parcelId": "1118201001"}, "geometry": {"type": "Polygon", "coordinates": [[[-94.38418, 42.00693], [-94.38418, 42.00299], [-94.38523, 42.00358], [-94.38703, 42.00368], [-94.38702, 42.00692], [-94.38517, 42.00739], [-94.38432, 42.00739], [-94.38418, 42.00693]]]}}, {"type": "Feature", "properties": {"name": "City green space between Daubendiek and Kelso (verify)", "owner": "JEFFERSON  CITY OF", "parcelId": "1118226009"}, "geometry": {"type": "Polygon", "coordinates": [[[-94.38226, 42.00717], [-94.38226, 42.00727], [-94.3804, 42.00664], [-94.37919, 42.00608], [-94.37861, 42.00566], [-94.37861, 42.00536], [-94.3789, 42.00497], [-94.37962, 42.00552], [-94.38225, 42.00637], [-94.38226, 42.00717]]]}}, {"type": "Feature", "properties": {"name": "South city tract 1118428001 \u2014 verify use", "owner": "JEFFERSON  CITY OF", "parcelId": "1118428001"}, "geometry": {"type": "Polygon", "coordinates": [[[-94.38005, 41.99894], [-94.38, 41.99859], [-94.37969, 41.99852], [-94.37968, 41.99836], [-94.38078, 41.99857], [-94.38078, 41.99805], [-94.38121, 41.99785], [-94.38233, 41.99838], [-94.3809, 41.99881], [-94.3809, 41.99894], [-94.38005, 41.99894]]]}}, {"type": "Feature", "properties": {"name": "South city tract 1118476004 \u2014 verify use", "owner": "JEFFERSON  CITY OF", "parcelId": "1118476004"}, "geometry": {"type": "Polygon", "coordinates": [[[-94.38233, 41.99838], [-94.38121, 41.99785], [-94.38078, 41.99785], [-94.38078, 41.99857], [-94.38043, 41.99858], [-94.37968, 41.99836], [-94.37966, 41.9979], [-94.37767, 41.99711], [-94.37748, 41.99367], [-94.38182, 41.99369], [-94.38275, 41.99686], [-94.38278, 41.9987], [-94.38259, 41.99877], [-94.38233, 41.99838]]]}}, {"type": "Feature", "properties": {"name": "South city tract 1119200003 \u2014 verify use", "owner": "JEFFERSON  CITY OF", "parcelId": "1119200003"}, "geometry": {"type": "Polygon", "coordinates": [[[-94.38182, 41.99369], [-94.37949, 41.99368], [-94.37859, 41.99285], [-94.37872, 41.99236], [-94.3798, 41.99219], [-94.38109, 41.99286], [-94.38217, 41.99369], [-94.38182, 41.99369]]]}}, {"type": "Feature", "properties": {"name": "South city tract 1119200004 \u2014 verify use", "owner": "JEFFERSON  CITY OF", "parcelId": "1119200004"}, "geometry": {"type": "Polygon", "coordinates": [[[-94.37894, 41.99368], [-94.37893, 41.99312], [-94.37948, 41.99358], [-94.37894, 41.99368]]]}}]}